NORAD_CAT_ID,OBJECT_NAME,OBJECT_TYPE,EPOCH,MEAN_MOTION,ECCENTRICITY,INCLINATION,RA_OF_ASC_NODE,ARG_OF_PERICENTER,MEAN_ANOMALY,BSTAR,MEAN_MOTION_DOT,MEAN_MOTION_DDOT,TLE_LINE0,TLE_LINE1,TLE_LINE2,SEMIMAJOR_AXIS,PERIOD,APOGEE,PERIGEE,DECAYED
53870.0,STARLINK-4732,PAYLOAD,2023-10-24 03:30:07,15.08860833,0.0001565,53.2159,198.6057,108.2092,251.907,0.0014759,0.00023292,0.0,0 STARLINK-4732,1 53870U 22114BE  23297.14592547  .00023292  00000-0  14759-2 0  9999,2 53870  53.2159 198.6057 0001565 108.2092 251.9070 15.08860833 61884,6917.817,95.436,540.764,538.599,0.0
53870.0,STARLINK-4732,PAYLOAD,2023-10-25 20:50:09,15.08840594,0.0001552,53.2164,190.873,99.9326,260.1842,-7.7223e-06,-4.11e-06,0.0,0 STARLINK-4732,1 53870U 22114BE  23298.86816690 -.00000411  00000-0 -77223-5 0  9995,2 53870  53.2164 190.8730 0001552  99.9326 260.1842 15.08840594 62145,6917.879,95.438,540.817,538.67,0.0
53870.0,STARLINK-4732,PAYLOAD,2023-10-25 22:25:32,15.08840799,0.0001572,53.2165,190.5757,99.8675,260.2494,-2.0888e-06,-3.21e-06,0.0,0 STARLINK-4732,1 53870U 22114BE  23298.93440668 -.00000321  00000-0 -20888-5 0  9996,2 53870  53.2165 190.5757 0001572  99.8675 260.2494 15.08840799 62691,6917.878,95.438,540.83,538.655,0.0
53870.0,STARLINK-4732,PAYLOAD,2023-10-26 00:00:55,15.08846318,0.0001492,53.216,190.2797,102.8339,257.282,6.2193e-05,7.02e-06,0.0,0 STARLINK-4732,1 53870U 22114BE  23299.00064360  .00000702  00000-0  62193-4 0  9991,2 53870  53.2160 190.2797 0001492 102.8339 257.2820 15.08846318 62704,6917.861,95.437,540.758,538.694,0.0
53870.0,STARLINK-4732,PAYLOAD,2023-10-26 20:40:56,15.08847523,0.0001626,53.2165,186.415,108.2114,251.9055,0.00018888,2.72e-05,0.0,0 STARLINK-4732,1 53870U 22114BE  23299.86176301  .00002720  00000-0  18888-3 0  9997,2 53870  53.2165 186.4150 0001626 108.2114 251.9055 15.08847523 62833,6917.857,95.437,540.847,538.598,0.0
53870.0,STARLINK-4732,PAYLOAD,2023-10-26 23:51:42,15.08855413,0.0001543,53.2162,185.8208,102.4145,257.702,0.00032068,4.821e-05,0.0,0 STARLINK-4732,1 53870U 22114BE  23299.99423991  .00004821  00000-0  32068-3 0  9991,2 53870  53.2162 185.8208 0001543 102.4145 257.7020 15.08855413 62311,6917.833,95.437,540.766,538.631,0.0
53870.0,STARLINK-4732,PAYLOAD,2023-10-27 09:24:01,15.08852004,0.0001288,53.2155,184.0349,87.1137,273.0002,0.00030922,4.638e-05,0.0,0 STARLINK-4732,1 53870U 22114BE  23300.39167837  .00004638  00000-0  30922-3 0  9995,2 53870  53.2155 184.0349 0001288  87.1137 273.0002 15.08852004 62916,6917.844,95.437,540.6,538.818,0.0
53870.0,STARLINK-4732,PAYLOAD,2023-10-27 20:31:43,15.08834765,0.0001408,53.2152,181.9541,86.4334,273.6819,-0.00011649,-2.141e-05,0.0,0 STARLINK-4732,1 53870U 22114BE  23300.85536548 -.00002141  00000-0 -11649-3 0  9999,2 53870  53.2152 181.9541 0001408  86.4334 273.6819 15.08834765 62442,6917.896,95.438,540.735,538.787,0.0
53870.0,STARLINK-4732,PAYLOAD,2023-10-27 22:07:06,15.08835653,0.0001512,53.2153,181.6568,85.506,274.6105,-8.1594e-05,-1.586e-05,0.0,0 STARLINK-4732,1 53870U 22114BE  23300.92160571 -.00001586  00000-0 -81594-4 0  9995,2 53870  53.2153 181.6568 0001512  85.5060 274.6105 15.08835653 62997,6917.894,95.438,540.805,538.713,0.0
53870.0,STARLINK-4732,PAYLOAD,2023-10-28 01:17:52,15.08839171,0.0001548,53.2158,181.062,84.2466,275.8702,1.9121e-05,1.6e-07,0.0,0 STARLINK-4732,1 53870U 22114BE  23301.05408491  .00000016  00000-0  19121-4 0  9998,2 53870  53.2158 181.0620 0001548  84.2466 275.8702 15.08839171 63019,6917.883,95.438,540.819,538.677,0.0
53870.0,STARLINK-4732,PAYLOAD,2023-10-28 21:57:53,15.08839407,0.0001324,53.2149,177.1956,100.9428,259.1714,0.00013513,1.863e-05,0.0,0 STARLINK-4732,1 53870U 22114BE  23301.91520688  .00001863  00000-0  13513-3 0  9995,2 53870  53.2149 177.1956 0001324 100.9428 259.1714 15.08839407 63147,6917.882,95.438,540.663,538.831,0.0
53870.0,STARLINK-4732,PAYLOAD,2023-10-28 23:33:16,15.0885031,0.000142,53.215,176.8975,93.2181,266.8974,0.00025216,3.729e-05,0.0,0 STARLINK-4732,1 53870U 22114BE  23301.98144378  .00003729  00000-0  25216-3 0  9996,2 53870  53.2150 176.8975 0001420  93.2181 266.8974 15.08850310 62613,6917.849,95.437,540.696,538.732,0.0
53870.0,STARLINK-4732,PAYLOAD,2023-10-29 09:05:35,15.08846472,0.0001392,53.2151,175.1144,87.491,272.6242,0.00035493,5.366e-05,0.0,0 STARLINK-4732,1 53870U 22114BE  23302.37888717  .00005366  00000-0  35493-3 0  9999,2 53870  53.2151 175.1144 0001392  87.4910 272.6242 15.08846472 62670,6917.861,95.437,540.689,538.763,0.0
53870.0,STARLINK-4732,PAYLOAD,2023-10-29 21:48:40,15.08850646,0.0001564,53.2157,172.7327,91.5845,268.5326,0.00033977,5.125e-05,0.0,0 STARLINK-4732,1 53870U 22114BE  23302.90880707  .00005125  00000-0  33977-3 0  9997,2 53870  53.2157 172.7327 0001564  91.5845 268.5326 15.08850646 63290,6917.848,95.437,540.795,538.631,0.0
53870.0,STARLINK-4732,PAYLOAD,2023-10-30 08:56:22,15.08846906,0.0001613,53.2152,170.6527,91.8705,268.2472,0.00026817,3.983e-05,0.0,0 STARLINK-4732,1 53870U 22114BE  23303.37248601  .00003983  00000-0  26817-3 0  9995,2 53870  53.2152 170.6527 0001613  91.8705 268.2472 15.08846906 62828,6917.859,95.437,540.84,538.608,0.0
53870.0,STARLINK-4732,PAYLOAD,2023-10-30 21:39:28,15.08815805,5.26e-05,53.2149,168.2735,71.7682,288.3367,-0.00045074,-7.449e-05,0.0,0 STARLINK-4732,1 53870U 22114BE  23303.90241570 -.00007449  00000-0 -45074-3 0  9991,2 53870  53.2149 168.2735 0000526  71.7682 288.3367 15.08815805 62900,6917.954,95.439,540.183,539.455,0.0
53870.0,STARLINK-4732,PAYLOAD,2023-10-31 00:50:14,15.08841263,0.0001443,53.2149,167.6793,95.7941,264.3216,0.00012185,1.652e-05,0.0,0 STARLINK-4732,1 53870U 22114BE  23304.03488808  .00001652  00000-0  12185-3 0  9998,2 53870  53.2149 167.6793 0001443  95.7941 264.3216 15.08841263 62926,6917.877,95.437,540.74,538.743,0.0
53870.0,STARLINK-4732,PAYLOAD,2023-10-31 15:08:42,15.08836696,0.0001526,53.2152,165.0026,97.1241,262.9924,0.0001118,1.492e-05,0.0,0 STARLINK-4732,1 53870U 22114BE  23304.63105127  .00001492  00000-0  11180-3 0  9990,2 53870  53.2152 165.0026 0001526  97.1241 262.9924 15.08836696 63556,6917.89,95.438,540.811,538.7,0.0
53870.0,STARLINK-4732,PAYLOAD,2023-10-31 21:30:15,15.08844819,0.0001454,53.2149,163.8128,93.3345,266.7813,0.00024985,3.691e-05,0.0,0 STARLINK-4732,1 53870U 22114BE  23304.89600994  .00003691  00000-0  24985-3 0  9990,2 53870  53.2149 163.8128 0001454  93.3345 266.7813 15.08844819 63593,6917.866,95.437,540.737,538.725,0.0
53870.0,STARLINK-4732,PAYLOAD,2023-11-01 00:41:01,15.0884527,0.000146,53.2152,163.2184,93.0542,267.0618,0.00035186,5.317e-05,0.0,0 STARLINK-4732,1 53870U 22114BE  23305.02849048  .00005317  00000-0  35186-3 0  9993,2 53870  53.2152 163.2184 0001460  93.0542 267.0618 15.08845270 63618,6917.864,95.437,540.739,538.719,0.0
53870.0,STARLINK-4732,PAYLOAD,2023-11-01 21:21:02,15.08849711,0.0001102,53.2157,159.3526,94.1066,266.0052,0.00037902,5.751e-05,0.0,0 STARLINK-4732,1 53870U 22114BE  23305.88960942  .00005751  00000-0  37902-3 0  9994,2 53870  53.2157 159.3526 0001102  94.1066 266.0052 15.08849711 63205,6917.851,95.437,540.478,538.953,0.0
53870.0,STARLINK-4732,PAYLOAD,2023-11-02 06:53:21,15.08841151,0.000121,53.2145,157.5688,93.0076,267.1055,0.0003735,5.662e-05,0.0,0 STARLINK-4732,1 53870U 22114BE  23306.28705268  .00005662  00000-0  37350-3 0  9995,2 53870  53.2145 157.5688 0001210  93.0076 267.1055 15.08841151 63261,6917.877,95.437,540.579,538.905,0.0
53870.0,STARLINK-4732,PAYLOAD,2023-11-02 19:36:26,15.0883568,0.0001461,53.2165,155.1935,101.2921,258.8235,-6.723e-05,-1.358e-05,0.0,0 STARLINK-4732,1 53870U 22114BE  23306.81697351 -.00001358  00000-0 -67230-4 0  9998,2 53870  53.2165 155.1935 0001461 101.2921 258.8235 15.08835680 63886,6917.894,95.438,540.769,538.748,0.0
53870.0,STARLINK-4732,PAYLOAD,2023-11-03 06:44:08,15.08834298,0.0001385,53.2147,153.1085,85.7849,274.3302,-6.3624e-05,-1.3e-05,0.0,0 STARLINK-4732,1 53870U 22114BE  23307.28065464 -.00001300  00000-0 -63624-4 0  9994,2 53870  53.2147 153.1085 0001385  85.7849 274.3302 15.08834298 63411,6917.898,95.438,540.721,538.805,0.0
53870.0,STARLINK-4732,PAYLOAD,2023-11-03 14:41:04,15.08839894,0.0001308,53.215,151.6216,88.0148,272.0994,-1.7571e-05,-5.68e-06,0.0,0 STARLINK-4732,1 53870U 22114BE  23307.61185400 -.00000568  00000-0 -17571-4 0  9999,2 53870  53.2150 151.6216 0001308  88.0148 272.0994 15.08839894 64002,6917.881,95.438,540.651,538.841,0.0
53870.0,STARLINK-4732,PAYLOAD,2023-11-03 21:02:36,15.08842382,0.0001281,53.2151,150.4329,85.6233,274.4905,4.8549e-05,4.85e-06,0.0,0 STARLINK-4732,1 53870U 22114BE  23307.87681205  .00000485  00000-0  48549-4 0  9996,2 53870  53.2151 150.4329 0001281  85.6233 274.4905 15.08842382 64041,6917.873,95.437,540.624,538.852,0.0
53870.0,STARLINK-4732,PAYLOAD,2023-11-04 20:53:23,15.0884045,0.0001272,53.2153,145.9722,81.0956,279.018,0.00010576,1.396e-05,0.0,0 STARLINK-4732,1 53870U 22114BE  23308.87041627  .00001396  00000-0  10576-3 0  9995,2 53870  53.2153 145.9722 0001272  81.0956 279.0180 15.08840450 63657,6917.879,95.438,540.624,538.864,0.0
53870.0,STARLINK-4732,PAYLOAD,2023-11-05 12:47:14,15.08847884,0.000129,53.2155,142.9988,84.7252,275.3887,0.00017653,2.523e-05,0.0,0 STARLINK-4732,1 53870U 22114BE  23309.53281223  .00002523  00000-0  17653-3 0  9993,2 53870  53.2155 142.9988 0001290  84.7252 275.3887 15.08847884 64291,6917.856,95.437,540.614,538.829,0.0
53870.0,STARLINK-4732,PAYLOAD,2023-11-05 19:08:47,15.08853977,0.000124,53.215,141.8095,86.503,273.6104,0.0003433,5.182e-05,0.0,0 STARLINK-4732,1 53870U 22114BE  23309.79776924  .00005182  00000-0  34330-3 0  9993,2 53870  53.2150 141.8095 0001240  86.5030 273.6104 15.08853977 63799,6917.838,95.437,540.56,538.845,0.0
53870.0,STARLINK-4732,PAYLOAD,2023-11-05 20:44:10,15.08865007,0.000131,53.2153,141.5124,85.8068,274.3074,0.00057157,8.826e-05,0.0,0 STARLINK-4732,1 53870U 22114BE  23309.86400636  .00008826  00000-0  57157-3 0  9995,2 53870  53.2153 141.5124 0001310  85.8068 274.3074 15.08865007 64346,6917.804,95.436,540.575,538.763,0.0
